[{"OBJECT_NAME":"KHALIFASAT","OBJECT_ID":"2018-084F","EPOCH":"2026-03-09T22:37:07.705056","MEAN_MOTION":15.0097364,"ECCENTRICITY":0.00062701,"INCLINATION":98.0864,"RA_OF_ASC_NODE":247.4233,"ARG_OF_PERICENTER":83.8573,"MEAN_ANOMALY":276.3364,"EPHEMERIS_TYPE":0,"CLASSIFICATION_TYPE":"U","NORAD_CAT_ID":43676,"ELEMENT_SET_NO":999,"REV_AT_EPOCH":40088,"BSTAR":0.00043724412,"MEAN_MOTION_DOT":5.516e-5,"MEAN_MOTION_DDOT":0},{"OBJECT_NAME":"STARLINK-36118","OBJECT_ID":"2025-293G","EPOCH":"2026-03-09T18:52:55.578432","MEAN_MOTION":14.9831791,"ECCENTRICITY":0.00039551,"INCLINATION":70.0019,"RA_OF_ASC_NODE":94.1613,"ARG_OF_PERICENTER":270.0357,"MEAN_ANOMALY":90.0349,"EPHEMERIS_TYPE":0,"CLASSIFICATION_TYPE":"U","NORAD_CAT_ID":67009,"ELEMENT_SET_NO":999,"REV_AT_EPOCH":1490,"BSTAR":0.00042754978,"MEAN_MOTION_DOT":5.011e-5,"MEAN_MOTION_DDOT":0}]
